NORAD_CAT_ID,OBJECT_NAME,OBJECT_TYPE,EPOCH,MEAN_MOTION,ECCENTRICITY,INCLINATION,RA_OF_ASC_NODE,ARG_OF_PERICENTER,MEAN_ANOMALY,BSTAR,MEAN_MOTION_DOT,MEAN_MOTION_DDOT,TLE_LINE0,TLE_LINE1,TLE_LINE2,SEMIMAJOR_AXIS,PERIOD,APOGEE,PERIGEE,DECAYED
55413.0,STARLINK-5060,PAYLOAD,2024-05-21 13:11:00,14.98334587,0.0003182,70.0,301.1475,269.7393,90.3401,3.7296e-05,3.52e-06,0.0,0 STARLINK-5060,1 55413U 23014Y   24142.54931161  .00000352  00000-0  37296-4 0  9992,2 55413  70.0000 301.1475 0003182 269.7393  90.3401 14.98334587 72199,6950.179,96.107,574.255,569.832,0.0
55413.0,STARLINK-5060,PAYLOAD,2024-05-21 14:47:08,14.98335674,0.0003117,70.0002,300.9793,272.4376,87.6426,9.8075e-05,1.078e-05,0.0,0 STARLINK-5060,1 55413U 23014Y   24142.61607170  .00001078  00000-0  98075-4 0  9998,2 55413  70.0002 300.9793 0003117 272.4376  87.6426 14.98335674 73141,6950.175,96.107,574.207,569.874,0.0
55413.0,STARLINK-5060,PAYLOAD,2024-05-21 21:11:40,14.98339646,0.000311,70.0002,300.3058,272.1237,87.9566,0.00060546,7.14e-05,0.0,0 STARLINK-5060,1 55413U 23014Y   24142.88311149  .00007140  00000-0  60546-3 0  9992,2 55413  70.0002 300.3058 0003110 272.1237  87.9566 14.98339646 73180,6950.163,96.106,574.19,569.867,0.0
55413.0,STARLINK-5060,PAYLOAD,2024-05-22 11:36:53,14.98331135,0.0003017,70.0005,298.7905,268.3059,91.7755,0.00039599,4.635e-05,0.0,0 STARLINK-5060,1 55413U 23014Y   24143.48395409  .00004635  00000-0  39599-3 0  9990,2 55413  70.0005 298.7905 0003017 268.3059  91.7755 14.98331135 73277,6950.189,96.107,574.151,569.958,0.0
55413.0,STARLINK-5060,PAYLOAD,2024-05-22 19:37:33,14.98336698,0.000297,70.0007,297.9489,268.0902,91.9917,0.00046342,5.442e-05,0.0,0 STARLINK-5060,1 55413U 23014Y   24143.81775244  .00005442  00000-0  46342-3 0  9997,2 55413  70.0007 297.9489 0002970 268.0902  91.9917 14.98336698 72380,6950.172,96.107,574.101,569.973,0.0
55413.0,STARLINK-5060,PAYLOAD,2024-05-23 13:15:02,14.98329271,0.0002667,70.0017,296.0982,258.1124,101.9736,0.00014934,1.689e-05,0.0,0 STARLINK-5060,1 55413U 23014Y   24144.55211579  .00001689  00000-0  14934-3 0  9996,2 55413  70.0017 296.0982 0002667 258.1124 101.9736 14.98329271 72490,6950.195,96.107,573.914,570.207,0.0
55413.0,STARLINK-5060,PAYLOAD,2024-05-23 14:51:10,14.9832862,0.0002683,70.0016,295.9298,257.8569,102.229,0.00015696,1.78e-05,0.0,0 STARLINK-5060,1 55413U 23014Y   24144.61887650  .00001780  00000-0  15696-3 0  9990,2 55413  70.0016 295.9298 0002683 257.8569 102.2290 14.98328620 73446,6950.197,96.107,573.927,570.197,0.0
55413.0,STARLINK-5060,PAYLOAD,2024-05-23 19:39:35,14.98329556,0.0002674,70.0017,295.425,258.2187,101.8672,0.00015041,1.702e-05,0.0,0 STARLINK-5060,1 55413U 23014Y   24144.81915636  .00001702  00000-0  15041-3 0  9996,2 55413  70.0017 295.4250 0002674 258.2187 101.8672 14.98329556 73472,6950.194,96.107,573.918,570.201,0.0
55413.0,STARLINK-5060,PAYLOAD,2024-05-24 13:17:03,14.98338297,0.000274,70.0013,293.5741,259.6043,100.4807,0.00020822,2.393e-05,0.0,0 STARLINK-5060,1 55413U 23014Y   24145.55351128  .00002393  00000-0  20822-3 0  9998,2 55413  70.0013 293.5741 0002740 259.6043 100.4807 14.98338297 73581,6950.167,96.106,573.937,570.128,0.0
55413.0,STARLINK-5060,PAYLOAD,2024-05-24 19:41:35,14.98340683,0.0002722,70.0012,292.9004,258.668,101.4173,0.00023119,2.667e-05,0.0,0 STARLINK-5060,1 55413U 23014Y   24145.82054881  .00002667  00000-0  23119-3 0  9990,2 55413  70.0012 292.9004 0002722 258.6680 101.4173 14.98340683 72680,6950.16,96.106,573.917,570.133,0.0
55413.0,STARLINK-5060,PAYLOAD,2024-05-25 13:19:05,14.9832169,0.0002643,70.0023,291.0482,262.5015,97.5844,-2.7412e-06,-1.26e-06,0.0,0 STARLINK-5060,1 55413U 23014Y   24146.55491940 -.00000126  00000-0 -27412-5 0  9994,2 55413  70.0023 291.0482 0002643 262.5015  97.5844 14.98321690 72799,6950.219,96.108,573.921,570.247,0.0
55413.0,STARLINK-5060,PAYLOAD,2024-05-25 14:55:12,14.98324118,0.0002943,70.0007,290.8782,265.3921,94.6902,-1.447e-05,-2.66e-06,0.0,0 STARLINK-5060,1 55413U 23014Y   24146.62167783 -.00000266  00000-0 -14470-4 0  9991,2 55413  70.0007 290.8782 0002943 265.3921  94.6902 14.98324118 73748,6950.211,96.107,574.122,570.031,0.0
55413.0,STARLINK-5060,PAYLOAD,2024-05-26 13:21:05,14.98336019,0.0003175,69.9988,288.5224,263.7589,96.3208,7.2874e-05,7.77e-06,0.0,0 STARLINK-5060,1 55413U 23014Y   24147.55631356  .00000777  00000-0  72874-4 0  9993,2 55413  69.9988 288.5224 0003175 263.7589  96.3208 14.98336019 72940,6950.174,96.107,574.246,569.833,0.0
55413.0,STARLINK-5060,PAYLOAD,2024-05-26 14:57:13,14.98333793,0.0003164,70.0005,288.3535,267.0524,93.0273,0.00011218,1.246e-05,0.0,0 STARLINK-5060,1 55413U 23014Y   24147.62307378  .00001246  00000-0  11218-3 0  9991,2 55413  70.0005 288.3535 0003164 267.0524  93.0273 14.98333793 73897,6950.181,96.107,574.245,569.847,0.0
55413.0,STARLINK-5060,PAYLOAD,2024-05-26 19:45:37,14.9833987,0.0003141,70.0006,287.849,266.0723,94.0077,0.00023172,2.674e-05,0.0,0 STARLINK-5060,1 55413U 23014Y   24147.82335040  .00002674  00000-0  23172-3 0  9998,2 55413  70.0006 287.8490 0003141 266.0723  94.0077 14.98339870 73926,6950.162,96.106,574.21,569.844,0.0
55413.0,STARLINK-5060,PAYLOAD,2024-05-27 13:23:06,14.98330942,0.0003152,70.0005,285.9973,267.1393,92.9405,0.00021297,2.449e-05,0.0,0 STARLINK-5060,1 55413U 23014Y   24148.55771511  .00002449  00000-0  21297-3 0  9992,2 55413  70.0005 285.9973 0003152 267.1393  92.9405 14.98330942 73098,6950.19,96.107,574.246,569.864,0.0
55413.0,STARLINK-5060,PAYLOAD,2024-05-27 19:47:38,14.98334095,0.0002946,70.0011,285.3239,267.2809,92.8013,0.00023608,2.725e-05,0.0,0 STARLINK-5060,1 55413U 23014Y   24148.82475369  .00002725  00000-0  23608-3 0  9999,2 55413  70.0011 285.3239 0002946 267.2809  92.8013 14.98334095 74073,6950.18,96.107,574.093,569.998,0.0
55413.0,STARLINK-5060,PAYLOAD,2024-05-28 13:25:07,14.9833457,0.0002995,70.0009,283.4723,265.4445,94.6372,5.6049e-05,5.76e-06,0.0,0 STARLINK-5060,1 55413U 23014Y   24149.55911169  .00000576  00000-0  56049-4 0  9991,2 55413  70.0009 283.4723 0002995 265.4445  94.6372 14.98334570 73241,6950.179,96.107,574.125,569.962,0.0
55413.0,STARLINK-5060,PAYLOAD,2024-05-28 18:13:31,14.98334565,0.0002876,70.0013,282.9675,266.47,93.613,5.2169e-05,5.3e-06,0.0,0 STARLINK-5060,1 55413U 23014Y   24149.75939124  .00000530  00000-0  52169-4 0  9993,2 55413  70.0013 282.9675 0002876 266.4700  93.6130 14.98334565 74212,6950.179,96.107,574.043,570.045,0.0
55413.0,STARLINK-5060,PAYLOAD,2024-05-29 13:27:08,14.98331401,0.000284,70.0001,280.9487,258.9017,101.1823,7.8695e-05,8.46e-06,0.0,0 STARLINK-5060,1 55413U 23014Y   24150.56051347  .00000846  00000-0  78695-4 0  9998,2 55413  70.0001 280.9487 0002840 258.9017 101.1823 14.98331401 74339,6950.189,96.107,574.027,570.08,0.0
55413.0,STARLINK-5060,PAYLOAD,2024-05-29 18:15:32,14.98330495,0.000289,70.0,280.4434,262.8172,97.2658,5.0038e-05,5.04e-06,0.0,0 STARLINK-5060,1 55413U 23014Y   24150.76079418  .00000504  00000-0  50038-4 0  9991,2 55413  70.0000 280.4434 0002890 262.8172  97.2658 14.98330495 73428,6950.191,96.107,574.065,570.048,0.0
55413.0,STARLINK-5060,PAYLOAD,2024-05-30 13:29:08,14.98338175,0.0003051,69.9997,278.4233,266.0262,94.0549,0.0001186,1.323e-05,0.0,0 STARLINK-5060,1 55413U 23014Y   24151.56190741  .00001323  00000-0  11860-3 0  9992,2 55413  69.9997 278.4233 0003051 266.0262  94.0549 14.98338175 74484,6950.168,96.106,574.153,569.912,0.0
55413.0,STARLINK-5060,PAYLOAD,2024-05-30 18:17:32,14.98340716,0.0003028,69.9997,277.9183,265.8212,94.2601,0.00014448,1.632e-05,0.0,0 STARLINK-5060,1 55413U 23014Y   24151.76218440  .00001632  00000-0  14448-3 0  9999,2 55413  69.9997 277.9183 0003028 265.8212  94.2601 14.98340716 73572,6950.16,96.106,574.129,569.92,0.0
55413.0,STARLINK-5060,PAYLOAD,2024-05-31 11:55:02,14.98321881,0.0002874,69.9999,276.0667,263.2357,96.8475,3.7853e-06,-4.8e-07,0.0,0 STARLINK-5060,1 55413U 23014Y   24152.49655931 -.00000048  00000-0  37853-5 0  9998,2 55413  69.9999 276.0667 0002874 263.2357  96.8475 14.98321881 73682,6950.218,96.108,574.08,570.086,0.0
55413.0,STARLINK-5060,PAYLOAD,2024-05-31 18:19:35,14.98321744,0.0003061,69.9999,275.3924,271.0797,89.0012,-2.1328e-05,-3.47e-06,0.0,0 STARLINK-5060,1 55413U 23014Y   24152.76360086 -.00000347  00000-0 -21328-4 0  9994,2 55413  69.9999 275.3924 0003061 271.0797  89.0012 14.98321744 74662,6950.218,96.108,574.211,569.956,0.0
55413.0,STARLINK-5060,PAYLOAD,2024-06-01 11:57:02,14.98335484,0.0003117,69.9992,273.541,270.6836,89.3966,8.0009e-05,8.62e-06,0.0,0 STARLINK-5060,1 55413U 23014Y   24153.49794996  .00000862  00000-0  80009-4 0  9997,2 55413  69.9992 273.5410 0003117 270.6836  89.3966 14.98335484 73831,6950.176,96.107,574.207,569.875,0.0
55413.0,STARLINK-5060,PAYLOAD,2024-06-01 15:09:18,14.98340936,0.000315,69.999,273.2047,269.7573,90.3225,0.00010544,1.166e-05,0.0,0 STARLINK-5060,1 55413U 23014Y   24153.63146540  .00001166  00000-0  10544-3 0  9993,2 55413  69.9990 273.2047 0003150 269.7573  90.3225 14.98340936 74790,6950.159,96.106,574.213,569.835,0.0
55413.0,STARLINK-5060,PAYLOAD,2024-06-01 18:21:34,14.98342899,0.0003134,69.9992,272.868,269.931,90.149,0.00013216,1.485e-05,0.0,0 STARLINK-5060,1 55413U 23014Y   24153.76498331  .00001485  00000-0  13216-3 0  9998,2 55413  69.9992 272.8680 0003134 269.9310  90.1490 14.98342899 73873,6950.153,96.106,574.196,569.84,0.0
55413.0,STARLINK-5060,PAYLOAD,2024-06-02 00:46:07,14.9833665,0.000311,69.9994,272.1939,273.5021,86.5783,3.1262e-05,2.8e-06,0.0,0 STARLINK-5060,1 55413U 23014Y   24154.03202873  .00000280  00000-0  31262-4 0  9997,2 55413  69.9994 272.1939 0003110 273.5021  86.5783 14.98336650 73916,6950.172,96.107,574.199,569.876,0.0
55413.0,STARLINK-5060,PAYLOAD,2024-06-02 11:59:04,14.98320073,0.0003006,70.0003,271.017,272.8584,87.2231,0.00018336,2.095e-05,0.0,0 STARLINK-5060,1 55413U 23014Y   24154.49935715  .00002095  00000-0  18336-3 0  9997,2 55413  70.0003 271.0170 0003006 272.8584  87.2231 14.98320073 73980,6950.224,96.108,574.178,569.999,0.0
